{
    "links": {
        "self": "http://www.neowsapp.com/rest/v1/neo/3716439?api_key=iIulBulltgU6a56xZRHN4H3l9WmuAYTsLGpBGhQ2"
    },
    "id": "3716439",
    "neo_reference_id": "3716439",
    "name": "(2015 HG1)",
    "designation": "2015 HG1",
    "nasa_jpl_url": "http://ssd.jpl.nasa.gov/sbdb.cgi?sstr=3716439",
    "absolute_magnitude_h": 23.6,
    "estimated_diameter": {
        "kilometers": {
            "estimated_diameter_min": 0.0506471459,
            "estimated_diameter_max": 0.1132504611
        },
        "meters": {
            "estimated_diameter_min": 50.6471458835,
            "estimated_diameter_max": 113.2504610618
        },
        "miles": {
            "estimated_diameter_min": 0.0314706677,
            "estimated_diameter_max": 0.0703705522
        },
        "feet": {
            "estimated_diameter_min": 166.1651821003,
            "estimated_diameter_max": 371.5566426699
        }
    },
    "is_potentially_hazardous_asteroid": false,
    "close_approach_data": [
        {
            "close_approach_date": "2015-04-13",
            "close_approach_date_full": "2015-Apr-13 09:00",
            "epoch_date_close_approach": 1428915600000,
            "relative_velocity": {
                "kilometers_per_second": "18.0471210656",
                "kilometers_per_hour": "64969.6358361265",
                "miles_per_hour": "40369.6051116198"
            },
            "miss_distance": {
                "astronomical": "0.0461640956",
                "lunar": "17.9578331884",
                "kilometers": "6906050.372236372",
                "miles": "4291220.7147590536"
            },
            "orbiting_body": "Earth"
        }
    ],
    "orbital_data": {
        "orbit_id": "14",
        "orbit_determination_date": "2017-04-06 08:34:21",
        "first_observation_date": "2015-04-18",
        "last_observation_date": "2015-04-27",
        "data_arc_in_days": 9,
        "observations_used": 68,
        "orbit_uncertainty": "8",
        "minimum_orbit_intersection": ".0434578",
        "jupiter_tisserand_invariant": "4.055",
        "epoch_osculation": "2457132.5",
        "eccentricity": ".625797268829265",
        "semi_major_axis": "1.633887581186705",
        "inclination": "5.134847656682535",
        "ascending_node_longitude": "173.7511927860071",
        "orbital_period": "762.8368859148192",
        "perihelion_distance": ".6114051953060111",
        "perihelion_argument": "299.6904702941806",
        "aphelion_distance": "2.656369967067399",
        "perihelion_time": "2457076.365201859442",
        "mean_anomaly": "26.49128234847499",
        "mean_motion": ".4719226438143144",
        "equinox": "J2000",
        "orbit_class": {
            "orbit_class_type": "APO",
            "orbit_class_description": "Near-Earth asteroid orbits which cross the Earth’s orbit similar to that of 1862 Apollo",
            "orbit_class_range": "a (semi-major axis) > 1.0 AU; q (perihelion) < 1.017 AU"
        }
    },
    "is_sentry_object": false
}